{
  "norad_id": 68658,
  "name": "GUOWANG GROUP 21 OBJECT C",
  "history": [
    {
      "epoch": "2026-04-09T21:05:43.363968Z",
      "apogee_km": 956.71554686129,
      "perigee_km": 947.5263355062207,
      "latitude_deg": 3.539592283488845e-05,
      "longitude_deg": -86.54092202611488,
      "height_km": 959.1672486116347,
      "semi_major_axis_km": 7330.257941183755,
      "eccentricity": 0.0006268,
      "inclination_deg": 86.489,
      "raan_deg": 68.0106,
      "arg_perigee_deg": 207.8539,
      "mean_anomaly_deg": 152.2294,
      "mean_motion_rev_day": 13.83323887
    }
  ]
}