GUOWANG GROUP 21 OBJECT*
1 68658U 26076C   26099.87897412 -.00011443  00000+0 -10454-1 0  9995
2 68658  86.4890  68.0106 0006268 207.8539 152.2294 13.83323887   154
